SKYSAT-C1               
1 41601U 16040C   26157.33832304  .00011878  00000+0  33951-3 0  9998
2 41601  96.9566 189.6476 0004211  79.1010 281.0709 15.36115735556204
LAPAN-A3                
1 41603U 16040E   26157.61727219  .00003808  00000+0  12146-3 0  9996
2 41603  97.1490 154.1111 0011913  59.7228 300.5192 15.33037473553197
GAOFEN-3                
1 41727U 16049A   26157.60788977  .00000206  00000+0  75743-4 0  9991
2 41727  98.4012 165.5539 0001166  95.8656 264.2666 14.42214646517126
SKYSAT-C4               
1 41771U 16058B   26156.31181551  .00015661  00000+0  29904-3 0  9990
2 41771  96.9178 178.5840 0000971  78.7321 281.4039 15.48200882543636
SKYSAT-C5               
1 41772U 16058C   26157.34347483  .00009969  00000+0  30222-3 0  9992
2 41772  97.0475 198.4688 0002341  11.6429 348.4869 15.34314115542081
SKYSAT-C2               
1 41773U 16058D   26156.77280011  .00015365  00000+0  36430-3 0  9996
2 41773  97.0171 179.2995 0005205  94.6051 265.5792 15.41804845543297
SKYSAT-C3               
1 41774U 16058E   26156.34646874  .00019999  00000+0  33339-3 0  9995
2 41774  96.9013 187.6532 0002078  80.7564 279.3925 15.52014879544273
ALSAT-1B                
1 41785U 16059C   26157.56990635  .00000093  00000+0  22242-4 0  9997
2 41785  97.7753 166.7920 0007714 260.8850  99.1486 14.72265681519019
PATHFINDER 1            
1 41787U 16059E   26157.50090090  .00000680  00000+0  12714-3 0  9993
2 41787  97.8166 157.2595 0027119 238.9085 120.9458 14.67651177518148
SCATSAT 1               
1 41790U 16059H   26157.45998563  .00001225  00000+0  16754-3 0  9997
2 41790  98.1195 221.1154 0053283 282.9555  76.5709 14.79503699100007
GOKTURK 1A              
1 41875U 16073A   26157.57468885  .00000444  00000+0  96282-4 0  9996
2 41875  98.1259  52.4149 0001465  75.9409 284.1956 14.62766975507275
RESOURCESAT-2A          
1 41877U 16074A   26157.58384890  .00000157  00000+0  91828-4 0  9995
2 41877  98.7523 231.1746 0003329 102.9765 257.1784 14.21613540492796
CARTOSAT-2D             
1 41948U 17008A   26156.63246799 -.00002160  00000+0 -99469-4 0  9999
2 41948  97.4122 216.1531 0003727 285.1069  74.9753 15.19236200515827
SENTINEL-2B             
1 42063U 17013A   26157.57810605  .00000110  00000+0  58487-4 0  9997
2 42063  98.5688 232.5020 0001219  85.4196 274.7126 14.30814270483128
CARTOSAT-2E             
1 42767U 17036C   26157.57214807  .00005895  00000+0  28294-3 0  9992
2 42767  97.4276 217.5494 0003295   3.8584 356.2675 15.19240893496535
FORMOSAT-5              
1 42920U 17049A   26157.57045988  .00000205  00000+0  62908-4 0  9990
2 42920  98.2254 233.1159 0012632 113.6301 246.6222 14.50894979465131
SENTINEL-5P             
1 42969U 17064A   26157.55848865  .00000063  00000+0  50983-4 0  9995
2 42969  98.7922  99.7656 0000975  81.2482 278.8805 14.19517174448056
SKYSAT-C11              
1 42987U 17068A   26157.13592316  .00037958  00000+0  51972-3 0  9991
2 42987  97.4346 305.4915 0001127  86.8611 273.2773 15.57313292481522
SKYSAT-C10              
1 42988U 17068B   26156.88094440  .00012783  00000+0  38541-3 0  9994
2 42988  97.4497 293.6207 0001298  89.3365 270.8026 15.34442038480625
SKYSAT-C9               
1 42989U 17068C   26157.65750168  .00016997  00000+0  40930-3 0  9993
2 42989  97.4416 295.2397 0008840 166.9794 193.1683 15.41300187481132
SKYSAT-C8               
1 42990U 17068D   26157.65074087  .00013777  00000+0  38552-3 0  9994
2 42990  97.4513 294.1579 0001602  97.8802 262.2624 15.36768703480692
SKYSAT-C7               
1 42991U 17068E   26157.64400369  .00013554  00000+0  37973-3 0  9999
2 42991  97.4524 295.1398 0006904 137.5981 222.5798 15.36715247480758
SKYSAT-C6               
1 42992U 17068F   26157.64536538  .00011261  00000+0  34430-3 0  9996
2 42992  97.4563 295.1496 0003765 166.4460 193.6885 15.34026580480709
CARTOSAT-2F             
1 43111U 18004A   26157.60403428  .00004438  00000+0  21356-3 0  9999
2 43111  97.4789 217.3417 0000171  43.9036 316.2212 15.19292440465723
GAOFEN-1 02             
1 43259U 18031A   26157.59075257  .00000559  00000+0  87677-4 0  9994
2 43259  98.0526 220.1469 0004445  56.6845 303.4790 14.76465790441138
GAOFEN-1 03             
1 43260U 18031B   26157.63668201  .00000844  00000+0  12877-3 0  9994
2 43260  98.0526 220.0523 0003823 100.0311 260.1330 14.76454311441137
GAOFEN-1 04             
1 43262U 18031D   26157.61241843  .00001150  00000+0  17265-3 0  9990
2 43262  98.0528 220.2176 0002225  92.9510 267.1955 14.76465571441121
SENTINEL-3B             
1 43437U 18039A   26157.45983470  .00000125  00000+0  69846-4 0  9997
2 43437  98.6250 225.1456 0000912  76.1590 283.9692 14.26738727422596
GAOFEN-5 01             
1 43461U 18043A   26157.51191194  .00000409  00000+0  94164-4 0  9996
2 43461  98.4564 128.8744 0002968 102.4868 257.6664 14.60598196430130
GAOFEN-6                
1 43484U 18048A   26157.63545030  .00000754  00000+0  11487-3 0  9990
2 43484  97.7758 220.7065 0011191 203.2212 156.8494 14.76621175431831
