OBJECT_NAME,OBJECT_ID,EPOCH,MEAN_MOTION,ECCENTRICITY,INCLINATION,RA_OF_ASC_NODE,ARG_OF_PERICENTER,MEAN_ANOMALY,EPHEMERIS_TYPE,CLASSIFICATION_TYPE,NORAD_CAT_ID,ELEMENT_SET_NO,REV_AT_EPOCH,BSTAR,MEAN_MOTION_DOT,MEAN_MOTION_DDOT
SKYSAT-C1,2016-040C,2026-06-06T08:07:11.110656,15.36115735,.00042113,96.9566,189.6476,79.1010,281.0709,0,U,41601,999,55620,.33950735E-3,.11878E-3,0
LAPAN-A3,2016-040E,2026-06-06T14:48:52.317216,15.33037473,.00119138,97.1490,154.1111,59.7228,300.5192,0,U,41603,999,55319,.12145544E-3,.3808E-4,0
GAOFEN-3,2016-049A,2026-06-06T14:35:21.676128,14.42214646,.00011669,98.4012,165.5539,95.8656,264.2666,0,U,41727,999,51712,.75743222E-4,.206E-5,0
SKYSAT-C4,2016-058B,2026-06-05T07:29:00.860064,15.48200882,.00009713,96.9178,178.5840,78.7321,281.4039,0,U,41771,999,54363,.29904111E-3,.15661E-3,0
SKYSAT-C5,2016-058C,2026-06-06T08:14:36.225312,15.34314115,.00023413,97.0475,198.4688,11.6429,348.4869,0,U,41772,999,54208,.30222151E-3,.9969E-4,0
SKYSAT-C2,2016-058D,2026-06-05T18:32:49.929504,15.41804845,.00052059,97.0171,179.2995,94.6051,265.5792,0,U,41773,999,54329,.36429803E-3,.15365E-3,0
SKYSAT-C3,2016-058E,2026-06-05T08:18:54.899136,15.52014879,.00020783,96.9013,187.6532,80.7564,279.3925,0,U,41774,999,54427,.33338845E-3,.19999E-3,0
ALSAT-1B,2016-059C,2026-06-06T13:40:39.908640,14.72265681,.00077146,97.7753,166.7920,260.8850,99.1486,0,U,41785,999,51901,.22241829E-4,.93E-6,0
PATHFINDER 1,2016-059E,2026-06-06T12:01:17.837760,14.67651177,.00271197,97.8166,157.2595,238.9085,120.9458,0,U,41787,999,51814,.12714288E-3,.68E-5,0
SCATSAT 1,2016-059H,2026-06-06T11:02:22.758432,14.79503699,.00532834,98.1195,221.1154,282.9555,76.5709,0,U,41790,999,10000,.16754024E-3,.1225E-4,0
GOKTURK 1A,2016-073A,2026-06-06T13:47:33.116640,14.62766975,.0001465,98.1259,52.4149,75.9409,284.1956,0,U,41875,999,50727,.96281825E-4,.444E-5,0
RESOURCESAT-2A,2016-074A,2026-06-06T14:00:44.544960,14.21613540,.00033291,98.7523,231.1746,102.9765,257.1784,0,U,41877,999,49279,.91828322E-4,.157E-5,0
CARTOSAT-2D,2017-008A,2026-06-05T15:10:45.234336,15.19236200,.00037278,97.4122,216.1531,285.1069,74.9753,0,U,41948,999,51582,-.99469042E-4,-.216E-4,0
SENTINEL-2B,2017-013A,2026-06-06T13:52:28.362720,14.30814270,.00012198,98.5688,232.5020,85.4196,274.7126,0,U,42063,999,48312,.58487037E-4,.11E-5,0
CARTOSAT-2E,2017-036C,2026-06-06T13:43:53.593248,15.19240893,.00032957,97.4276,217.5494,3.8584,356.2675,0,U,42767,999,49653,.28293835E-3,.5895E-4,0
FORMOSAT-5,2017-049A,2026-06-06T13:41:27.733632,14.50894979,.00126323,98.2254,233.1159,113.6301,246.6222,0,U,42920,999,46513,.62907797E-4,.205E-5,0
SENTINEL-5P,2017-064A,2026-06-06T13:24:13.419360,14.19517174,.0000975,98.7922,99.7656,81.2482,278.8805,0,U,42969,999,44805,.50982747E-4,.63E-6,0
SKYSAT-C11,2017-068A,2026-06-06T03:15:43.761024,15.57313292,.0001127,97.4346,305.4915,86.8611,273.2773,0,U,42987,999,48152,.51972E-3,.37958E-3,0
SKYSAT-C10,2017-068B,2026-06-05T21:08:33.596160,15.34442038,.0001298,97.4497,293.6207,89.3365,270.8026,0,U,42988,999,48062,.38541E-3,.12783E-3,0
SKYSAT-C9,2017-068C,2026-06-06T15:46:48.145152,15.41300187,.00088405,97.4416,295.2397,166.9794,193.1683,0,U,42989,999,48113,.40930193E-3,.16997E-3,0
SKYSAT-C8,2017-068D,2026-06-06T15:37:04.011168,15.36768703,.00016021,97.4513,294.1579,97.8802,262.2624,0,U,42990,999,48069,.38551629E-3,.13777E-3,0
SKYSAT-C7,2017-068E,2026-06-06T15:27:21.918816,15.36715247,.00069043,97.4524,295.1398,137.5981,222.5798,0,U,42991,999,48075,.37973178E-3,.13554E-3,0
SKYSAT-C6,2017-068F,2026-06-06T15:29:19.568832,15.34026580,.00037653,97.4563,295.1496,166.4460,193.6885,0,U,42992,999,48070,.34430319E-3,.11261E-3,0
CARTOSAT-2F,2018-004A,2026-06-06T14:29:48.561792,15.19292440,.00001714,97.4789,217.3417,43.9036,316.2212,0,U,43111,999,46572,.2135578E-3,.4438E-4,0
GAOFEN-1 02,2018-031A,2026-06-06T14:10:41.022048,14.76465790,.00044451,98.0526,220.1469,56.6845,303.4790,0,U,43259,999,44113,.87677416E-4,.559E-5,0
GAOFEN-1 03,2018-031B,2026-06-06T15:16:49.325664,14.76454311,.00038238,98.0526,220.0523,100.0311,260.1330,0,U,43260,999,44113,.12876983E-3,.844E-5,0
GAOFEN-1 04,2018-031D,2026-06-06T14:41:52.952352,14.76465571,.00022255,98.0528,220.2176,92.9510,267.1955,0,U,43262,999,44112,.17264955E-3,.115E-4,0
SENTINEL-3B,2018-039A,2026-06-06T11:02:09.718080,14.26738727,.00009125,98.6250,225.1456,76.1590,283.9692,0,U,43437,999,42259,.69846099E-4,.125E-5,0
GAOFEN-5 01,2018-043A,2026-06-06T12:17:09.191616,14.60598196,.00029687,98.4564,128.8744,102.4868,257.6664,0,U,43461,999,43013,.94163924E-4,.409E-5,0
GAOFEN-6,2018-048A,2026-06-06T15:15:02.905920,14.76621175,.0011191,97.7758,220.7065,203.2212,156.8494,0,U,43484,999,43183,.1148704E-3,.754E-5,0
